[{"OBJECT_NAME":"STARLINK-5714","OBJECT_ID":"2023-020AX","EPOCH":"2026-03-09T22:00:01.999584","MEAN_MOTION":15.13728186,"ECCENTRICITY":1.948e-5,"INCLINATION":43.0001,"RA_OF_ASC_NODE":337.0036,"ARG_OF_PERICENTER":327.0122,"MEAN_ANOMALY":187.1877,"EPHEMERIS_TYPE":0,"CLASSIFICATION_TYPE":"U","NORAD_CAT_ID":55614,"ELEMENT_SET_NO":999,"REV_AT_EPOCH":577,"BSTAR":0.0026586942,"MEAN_MOTION_DOT":0.00048866,"MEAN_MOTION_DDOT":0},{"OBJECT_NAME":"OBJECT A","OBJECT_ID":"2024-094A","EPOCH":"2026-03-07T00:47:02.877216","MEAN_MOTION":15.17421746,"ECCENTRICITY":0.00076871,"INCLINATION":97.396,"RA_OF_ASC_NODE":139.425,"ARG_OF_PERICENTER":177.7286,"MEAN_ANOMALY":182.3984,"EPHEMERIS_TYPE":0,"CLASSIFICATION_TYPE":"U","NORAD_CAT_ID":59805,"ELEMENT_SET_NO":999,"REV_AT_EPOCH":9968,"BSTAR":1.8416853e-5,"MEAN_MOTION_DOT":3.03e-6,"MEAN_MOTION_DDOT":0}]
